[
  {
    "OBJECT_NAME": "STARLINK-33910",
    "OBJECT_ID": "25095AC",
    "EPOCH": "2025-11-10T21:26:15.461664",
    "MEAN_MOTION": 15.27593919,
    "ECCENTRICITY": 0.000185,
    "INCLINATION": 43.0006,
    "RA_OF_ASC_NODE": 126.7428,
    "ARG_OF_PERICENTER": 270.143,
    "MEAN_ANOMALY": 89.921,
    "EPHEMERIS_TYPE": 0,
    "CLASSIFICATION_TYPE": "U",
    "NORAD_CAT_ID": 63916,
    "ELEMENT_SET_NO": 999,
    "REV_AT_EPOCH": 2961,
    "BSTAR": 0.0011487000000000001,
    "MEAN_MOTION_DOT": 0.00031497,
    "MEAN_MOTION_DDOT": 0.0,
    "TLE_LINE1": "1 63916U 25095AC  25314.89323451  .00031497  00000+0  11487-2 0  9992",
    "TLE_LINE2": "2 63916  43.0006 126.7428 0001850 270.1430  89.9210 15.27593919 29619",
    "COMMENT": "Grouped by shell and plane from TLE"
  },
  {
    "OBJECT_NAME": "STARLINK-34075",
    "OBJECT_ID": "25095AD",
    "EPOCH": "2025-11-11T03:59:31.693920",
    "MEAN_MOTION": 15.27611581,
    "ECCENTRICITY": 9.12e-05,
    "INCLINATION": 42.9981,
    "RA_OF_ASC_NODE": 125.357,
    "ARG_OF_PERICENTER": 263.1747,
    "MEAN_ANOMALY": 96.9001,
    "EPHEMERIS_TYPE": 0,
    "CLASSIFICATION_TYPE": "U",
    "NORAD_CAT_ID": 63917,
    "ELEMENT_SET_NO": 999,
    "REV_AT_EPOCH": 2965,
    "BSTAR": 0.0010512000000000002,
    "MEAN_MOTION_DOT": 0.00028806,
    "MEAN_MOTION_DDOT": 0.0,
    "TLE_LINE1": "1 63917U 25095AD  25315.16633905  .00028806  00000+0  10512-2 0  9990",
    "TLE_LINE2": "2 63917  42.9981 125.3570 0000912 263.1747  96.9001 15.27611581 29650",
    "COMMENT": "Grouped by shell and plane from TLE"
  },
  {
    "OBJECT_NAME": "STARLINK-34159",
    "OBJECT_ID": "25099A",
    "EPOCH": "2025-11-10T13:26:24.501120",
    "MEAN_MOTION": 15.27607442,
    "ECCENTRICITY": 0.0001444,
    "INCLINATION": 43.0001,
    "RA_OF_ASC_NODE": 129.2883,
    "ARG_OF_PERICENTER": 270.3477,
    "MEAN_ANOMALY": 89.721,
    "EPHEMERIS_TYPE": 0,
    "CLASSIFICATION_TYPE": "U",
    "NORAD_CAT_ID": 63952,
    "ELEMENT_SET_NO": 999,
    "REV_AT_EPOCH": 2910,
    "BSTAR": 0.0012933,
    "MEAN_MOTION_DOT": 0.00035528,
    "MEAN_MOTION_DDOT": 0.0,
    "TLE_LINE1": "1 63952U 25099A   25314.56000580  .00035528  00000+0  12933-2 0  9991",
    "TLE_LINE2": "2 63952  43.0001 129.2883 0001444 270.3477  89.7210 15.27607442 29108",
    "COMMENT": "Grouped by shell and plane from TLE"
  },
  {
    "OBJECT_NAME": "STARLINK-34137",
    "OBJECT_ID": "25099B",
    "EPOCH": "2025-11-10T20:51:16.827264",
    "MEAN_MOTION": 15.27607273,
    "ECCENTRICITY": 0.000226,
    "INCLINATION": 43.0062,
    "RA_OF_ASC_NODE": 127.3121,
    "ARG_OF_PERICENTER": 278.4792,
    "MEAN_ANOMALY": 81.5803,
    "EPHEMERIS_TYPE": 0,
    "CLASSIFICATION_TYPE": "U",
    "NORAD_CAT_ID": 63953,
    "ELEMENT_SET_NO": 999,
    "REV_AT_EPOCH": 2916,
    "BSTAR": 0.0011838,
    "MEAN_MOTION_DOT": 0.00032486,
    "MEAN_MOTION_DDOT": 0.0,
    "TLE_LINE1": "1 63953U 25099B   25314.86894476  .00032486  00000+0  11838-2 0  9993",
    "TLE_LINE2": "2 63953  43.0062 127.3121 0002260 278.4792  81.5803 15.27607273 29162",
    "COMMENT": "Grouped by shell and plane from TLE"
  },
  {
    "OBJECT_NAME": "STARLINK-33974",
    "OBJECT_ID": "25099C",
    "EPOCH": "2025-11-10T18:19:58.891584",
    "MEAN_MOTION": 15.27600245,
    "ECCENTRICITY": 0.0002298,
    "INCLINATION": 43.0028,
    "RA_OF_ASC_NODE": 128.2392,
    "ARG_OF_PERICENTER": 278.5521,
    "MEAN_ANOMALY": 81.507,
    "EPHEMERIS_TYPE": 0,
    "CLASSIFICATION_TYPE": "U",
    "NORAD_CAT_ID": 63954,
    "ELEMENT_SET_NO": 999,
    "REV_AT_EPOCH": 2914,
    "BSTAR": 0.0011417,
    "MEAN_MOTION_DOT": 0.0003131,
    "MEAN_MOTION_DDOT": 0.0,
    "TLE_LINE1": "1 63954U 25099C   25314.76387606  .00031310  00000+0  11417-2 0  9993",
    "TLE_LINE2": "2 63954  43.0028 128.2392 0002298 278.5521  81.5070 15.27600245 29143",
    "COMMENT": "Grouped by shell and plane from TLE"
  },
  {
    "OBJECT_NAME": "STARLINK-34170",
    "OBJECT_ID": "25099D",
    "EPOCH": "2025-11-10T21:22:44.467680",
    "MEAN_MOTION": 15.2760488,
    "ECCENTRICITY": 0.000199,
    "INCLINATION": 43.0033,
    "RA_OF_ASC_NODE": 127.4721,
    "ARG_OF_PERICENTER": 273.8716,
    "MEAN_ANOMALY": 86.1908,
    "EPHEMERIS_TYPE": 0,
    "CLASSIFICATION_TYPE": "U",
    "NORAD_CAT_ID": 63955,
    "ELEMENT_SET_NO": 999,
    "REV_AT_EPOCH": 2915,
    "BSTAR": 0.0011347,
    "MEAN_MOTION_DOT": 0.00031118,
    "MEAN_MOTION_DDOT": 0.0,
    "TLE_LINE1": "1 63955U 25099D   25314.89079245  .00031118  00000+0  11347-2 0  9993",
    "TLE_LINE2": "2 63955  43.0033 127.4721 0001990 273.8716  86.1908 15.27604880 29150",
    "COMMENT": "Grouped by shell and plane from TLE"
  },
  {
    "OBJECT_NAME": "STARLINK-34187",
    "OBJECT_ID": "25099E",
    "EPOCH": "2025-11-10T21:13:31.054080",
    "MEAN_MOTION": 15.27568681,
    "ECCENTRICITY": 0.0001709,
    "INCLINATION": 43.0025,
    "RA_OF_ASC_NODE": 127.4228,
    "ARG_OF_PERICENTER": 273.1319,
    "MEAN_ANOMALY": 86.9337,
    "EPHEMERIS_TYPE": 0,
    "CLASSIFICATION_TYPE": "U",
    "NORAD_CAT_ID": 63956,
    "ELEMENT_SET_NO": 999,
    "REV_AT_EPOCH": 2916,
    "BSTAR": 0.0015465000000000001,
    "MEAN_MOTION_DOT": 0.00042524,
    "MEAN_MOTION_DDOT": 0.0,
    "TLE_LINE1": "1 63956U 25099E   25314.88438720  .00042524  00000+0  15465-2 0  9998",
    "TLE_LINE2": "2 63956  43.0025 127.4228 0001709 273.1319  86.9337 15.27568681 29167",
    "COMMENT": "Grouped by shell and plane from TLE"
  },
  {
    "OBJECT_NAME": "STARLINK-34142",
    "OBJECT_ID": "25099F",
    "EPOCH": "2025-11-11T04:58:43.399200",
    "MEAN_MOTION": 15.2760576,
    "ECCENTRICITY": 0.0001024,
    "INCLINATION": 43.0009,
    "RA_OF_ASC_NODE": 125.5458,
    "ARG_OF_PERICENTER": 251.2,
    "MEAN_ANOMALY": 108.8741,
    "EPHEMERIS_TYPE": 0,
    "CLASSIFICATION_TYPE": "U",
    "NORAD_CAT_ID": 63957,
    "ELEMENT_SET_NO": 999,
    "REV_AT_EPOCH": 2921,
    "BSTAR": 0.0014718,
    "MEAN_MOTION_DOT": 0.00040494,
    "MEAN_MOTION_DDOT": 0.0,
    "TLE_LINE1": "1 63957U 25099F   25315.20744675  .00040494  00000+0  14718-2 0  9999",
    "TLE_LINE2": "2 63957  43.0009 125.5458 0001024 251.2000 108.8741 15.27605760 29217",
    "COMMENT": "Grouped by shell and plane from TLE"
  },
  {
    "OBJECT_NAME": "STARLINK-34144",
    "OBJECT_ID": "25099G",
    "EPOCH": "2025-11-11T04:53:10.201920",
    "MEAN_MOTION": 15.27606398,
    "ECCENTRICITY": 0.0001597,
    "INCLINATION": 43.0047,
    "RA_OF_ASC_NODE": 125.5208,
    "ARG_OF_PERICENTER": 274.0641,
    "MEAN_ANOMALY": 86.0029,
    "EPHEMERIS_TYPE": 0,
    "CLASSIFICATION_TYPE": "U",
    "NORAD_CAT_ID": 63958,
    "ELEMENT_SET_NO": 999,
    "REV_AT_EPOCH": 2921,
    "BSTAR": 0.0014204,
    "MEAN_MOTION_DOT": 0.00039063,
    "MEAN_MOTION_DDOT": 0.0,
    "TLE_LINE1": "1 63958U 25099G   25315.20359030  .00039063  00000+0  14204-2 0  9997",
    "TLE_LINE2": "2 63958  43.0047 125.5208 0001597 274.0641  86.0029 15.27606398 29216",
    "COMMENT": "Grouped by shell and plane from TLE"
  },
  {
    "OBJECT_NAME": "STARLINK-34099",
    "OBJECT_ID": "25099H",
    "EPOCH": "2025-11-10T13:28:15.792096",
    "MEAN_MOTION": 15.27618576,
    "ECCENTRICITY": 0.0001585,
    "INCLINATION": 42.9994,
    "RA_OF_ASC_NODE": 129.2948,
    "ARG_OF_PERICENTER": 264.7234,
    "MEAN_ANOMALY": 95.3436,
    "EPHEMERIS_TYPE": 0,
    "CLASSIFICATION_TYPE": "U",
    "NORAD_CAT_ID": 63959,
    "ELEMENT_SET_NO": 999,
    "REV_AT_EPOCH": 2911,
    "BSTAR": 0.0017284,
    "MEAN_MOTION_DOT": 0.00047664,
    "MEAN_MOTION_DDOT": 0.0,
    "TLE_LINE1": "1 63959U 25099H   25314.56129389  .00047664  00000+0  17284-2 0  9995",
    "TLE_LINE2": "2 63959  42.9994 129.2948 0001585 264.7234  95.3436 15.27618576 29114",
    "COMMENT": "Grouped by shell and plane from TLE"
  },
  {
    "OBJECT_NAME": "STARLINK-34107",
    "OBJECT_ID": "25099J",
    "EPOCH": "2025-11-10T20:56:50.201664",
    "MEAN_MOTION": 15.27591186,
    "ECCENTRICITY": 0.0001827,
    "INCLINATION": 43.0023,
    "RA_OF_ASC_NODE": 127.3373,
    "ARG_OF_PERICENTER": 264.947,
    "MEAN_ANOMALY": 95.1174,
    "EPHEMERIS_TYPE": 0,
    "CLASSIFICATION_TYPE": "U",
    "NORAD_CAT_ID": 63960,
    "ELEMENT_SET_NO": 999,
    "REV_AT_EPOCH": 2916,
    "BSTAR": 0.0013126,
    "MEAN_MOTION_DOT": 0.00036046,
    "MEAN_MOTION_DDOT": 0.0,
    "TLE_LINE1": "1 63960U 25099J   25314.87280326  .00036046  00000+0  13126-2 0  9993",
    "TLE_LINE2": "2 63960  43.0023 127.3373 0001827 264.9470  95.1174 15.27591186 29164",
    "COMMENT": "Grouped by shell and plane from TLE"
  },
  {
    "OBJECT_NAME": "STARLINK-34121",
    "OBJECT_ID": "25099K",
    "EPOCH": "2025-11-10T20:47:34.786176",
    "MEAN_MOTION": 15.27605709,
    "ECCENTRICITY": 0.0002128,
    "INCLINATION": 43.0039,
    "RA_OF_ASC_NODE": 127.2902,
    "ARG_OF_PERICENTER": 271.292,
    "MEAN_ANOMALY": 88.7688,
    "EPHEMERIS_TYPE": 0,
    "CLASSIFICATION_TYPE": "U",
    "NORAD_CAT_ID": 63961,
    "ELEMENT_SET_NO": 999,
    "REV_AT_EPOCH": 2916,
    "BSTAR": 0.0010827,
    "MEAN_MOTION_DOT": 0.00029675,
    "MEAN_MOTION_DDOT": 0.0,
    "TLE_LINE1": "1 63961U 25099K   25314.86637484  .00029675  00000+0  10827-2 0  9999",
    "TLE_LINE2": "2 63961  43.0039 127.2902 0002128 271.2920  88.7688 15.27605709 29160",
    "COMMENT": "Grouped by shell and plane from TLE"
  },
  {
    "OBJECT_NAME": "STARLINK-34103",
    "OBJECT_ID": "25099L",
    "EPOCH": "2025-11-11T04:32:48.345216",
    "MEAN_MOTION": 15.27607187,
    "ECCENTRICITY": 0.0001644,
    "INCLINATION": 43.0025,
    "RA_OF_ASC_NODE": 125.4127,
    "ARG_OF_PERICENTER": 267.9212,
    "MEAN_ANOMALY": 92.1451,
    "EPHEMERIS_TYPE": 0,
    "CLASSIFICATION_TYPE": "U",
    "NORAD_CAT_ID": 63962,
    "ELEMENT_SET_NO": 999,
    "REV_AT_EPOCH": 2921,
    "BSTAR": 0.0015595000000000001,
    "MEAN_MOTION_DOT": 0.00042939,
    "MEAN_MOTION_DDOT": 0.0,
    "TLE_LINE1": "1 63962U 25099L   25315.18944844  .00042939  00000+0  15595-2 0  9992",
    "TLE_LINE2": "2 63962  43.0025 125.4127 0001644 267.9212  92.1451 15.27607187 29218",
    "COMMENT": "Grouped by shell and plane from TLE"
  }
]